#aV2007  3  7  0  0   .00000000      96 DD+AD WGS84 FIT  NGA
## 1417 259200.00000000   900.00000000 54166  .0000000000000
+   30     1  2  3  4  5  6  7  8  9 10 11 12 13 14 16 17 18
+         19 20 21 22 23 24 25 26 27 28 29 30 31  0  0  0  0
+          0  0  0  0  0  0  0  0  0  0  0  0  0  0  0  0  0
+          0  0  0  0  0  0  0  0  0  0  0  0  0  0  0  0  0
+          0  0  0  0  0  0  0  0  0  0  0  0  0  0  0  0  0
++         0  0  0  0  0  0  0  0  0  0  0  0  0  0  0  0  0
++         0  0  0  0  0  0  0  0  0  0  0  0  0  0  0  0  0
++         0  0  0  0  0  0  0  0  0  0  0  0  0  0  0  0  0
++         0  0  0  0  0  0  0  0  0  0  0  0  0  0  0  0  0
++         0  0  0  0  0  0  0  0  0  0  0  0  0  0  0  0  0
%c cc cc ccc ccc cccc cccc cccc cccc ccccc ccccc ccccc ccccc
%c cc cc ccc ccc cccc cccc cccc cccc ccccc ccccc ccccc ccccc
%f  0.0000000  0.000000000  0.00000000000  0.000000000000000
%f  0.0000000  0.000000000  0.00000000000  0.000000000000000
%i    0    0    0    0      0      0      0      0         0
%i    0    0    0    0      0      0      0      0         0
/*      NGA, ST. LOUIS,MO.                                  
/*   EPHEMERIS COMPUTED FROM  3 DAYS OF DATA                
/* CCCCCCCCCCCCCCCCCCCCCCCCCCCCCCCCCCCCCCCCCCCCCCCCCCCCCCCCC
/* CCCCCCCCCCCCCCCCCCCCCCCCCCCCCCCCCCCCCCCCCCCCCCCCCCCCCCCCC
*  2007  3  7  0  0   .00000000                                                 
P  1 -21739.312299 -15008.377037   3264.180329    112.051143                    
V  1   4249.090669    375.264685  32000.104547       .024270                    
P  2  13807.980665  14078.145620 -18146.272872     88.110251                    
V  2   -418.068569  22574.404761  17158.124899       .032536                    
P  3 -24488.093417 -10703.129561  -1148.523642     23.918269                    
V  3   2462.176040  -2894.954883 -30717.697970       .056326                    
P  4   6568.277129  24272.878031  -8024.742237      6.875198                    
V  4  -2995.614643  10324.948870  29374.635292       .014502                    
P  5  22008.532958 -14426.284085   2712.250706     42.288542                    
V  5   -766.522060   5148.084746  31120.347088       .016628                    
P  6  12199.031493 -11118.298713 -20627.868291     71.556127                    
V  6  23794.740583  12184.165045   7387.088165       .233582                    
P  7   7719.999593 -13616.582960 -21122.650570    393.311470                    
V  7  25286.218296  11343.015905   1820.508511      -.133298                    
P  8  -1068.724285  26254.819352  -1653.866137    -99.057367                    
V  8  -2680.800561  -1976.615371 -32300.293813      -.013509                    
P  9  14251.133480  -5435.156872  21139.088044     60.488633                    
V  9   3004.198055  28091.375795   5284.317135       .017146                    
P 10  19221.093520   3014.438815 -18334.781424     98.414787                    
V 10 -18967.324801  12913.456116 -17549.282901       .004841                    
P 11 -14831.764969   8364.040233  20239.578494      9.368656                    
V 11  -6568.607707 -25476.018462   5975.908250       .012046                    
P 12  23551.637587 -11373.034556   4592.529249    -46.188571                    
V 12  -3294.544150   5415.018242  31085.109869       .018961                    
P 13  -8487.501703  11860.633465 -22289.391296    150.446945                    
V 13 -24364.208902 -13762.395798   2008.805582       .038554                    
P 14 -10374.379778 -18045.403068  16621.718818     10.682127                    
V 14  18938.628610   8833.175199  21452.863102       .014317                    
P 16 -14285.089168  -8134.179082 -20804.052778    128.494243                    
V 16  22154.078072 -14694.242636  -9295.139652       .034652                    
P 17   9313.866192  18259.614049  16958.194386     76.270202                    
V 17 -19831.033714  -8438.196188  19860.053240      -.015427                    
P 18  12765.077899 -18718.263122  13727.444107   -253.259218                    
V 18  16260.413686  -6567.104026 -24628.272942       .003140                    
P 19 -23929.943133  -6191.250108   9952.968841     11.922891                    
V 19  -9416.825509  -8545.831437 -28130.074517       .039528                    
P 20 -23045.813470  12847.215320   2718.252856    -22.722697                    
V 20   1305.452814  -4531.710395  31377.598088      -.002519                    
P 21   5799.102208 -24180.020741  -8390.401711     72.869161                    
V 21   3831.425870  10938.126340 -29091.890434       .008477                    
P 22   1166.145617 -17308.137961  20261.305211    170.844997                    
V 22  22595.654052 -11701.310393 -11402.135807       .017090                    
P 23 -18707.527474   4562.126077 -18457.939717    153.113168                    
V 23 -20026.220573 -11731.958271  17284.840961       .018629                    
P 24  12728.339689 -14798.898599 -17943.530503     82.893694                    
V 24   1430.876984  23105.358113 -17545.436575       .030491                    
P 25 -15195.019096  -8306.796711 -19720.172208    312.834272                    
V 25  -2355.159566 -25862.851363  12617.889980      -.204561                    
P 26  24378.702547   8022.250569   7493.197186    -76.040153                    
V 26   8004.198221   6003.951031 -30180.379313      -.190163                    
P 27  -4543.387891  23695.663315 -10164.886045     97.834528                    
V 27  -4301.420056 -13555.172002 -28178.859565       .021045                    
P 28  -4840.721318  18317.900130  18793.163972      5.946739                    
V 28 -20710.063463  10825.810564 -16513.059961      -.007321                    
P 29  24644.138809   9721.512829   3961.355089      -.034769                    
V 29   3454.439686   3543.660264 -31612.391334       .011719                    
P 30  18195.470898 -18271.448435  -6412.957718     27.293087                    
V 30   8222.005978  -1829.557240  30074.151170       .011486                    
P 31  -7895.959233 -23367.177300  -9568.979198     13.721808                    
V 31   1983.056217 -12579.144502  28539.196748       .026905                    
EOF
